GUOWANG TEST OBJECT A
1 68687U 26103.57128472  9.37600-5 1.09270-2 0 0                     
2 68687  86.4978 305.1502 0008185 283.4992  76.5255 13.68807553      
