{
  "norad_id": 68687,
  "name": "GUOWANG TEST OBJECT A",
  "history": [
    {
      "epoch": "2026-04-13T13:42:39.250368Z",
      "apogee_km": 1009.8973160816713,
      "perigee_km": 997.8129949231134,
      "latitude_deg": 2.2504895601491376e-06,
      "longitude_deg": -102.27349877014245,
      "height_km": 1005.4103200047484,
      "semi_major_axis_km": 7381.992155502392,
      "eccentricity": 0.0008185,
      "inclination_deg": 86.4978,
      "raan_deg": 305.1502,
      "arg_perigee_deg": 283.4992,
      "mean_anomaly_deg": 76.5255,
      "mean_motion_rev_day": 13.68807553
    }
  ]
}